[{"OBJECT_NAME":"BEIDOU-3 G3 (PRN 143)","OBJECT_ID":"2020-040A","EPOCH":"2026-03-04T20:20:41.847648","MEAN_MOTION":1.00275295,"ECCENTRICITY":0.0004351,"INCLINATION":2.1912,"RA_OF_ASC_NODE":67.1232,"ARG_OF_PERICENTER":316.4937,"MEAN_ANOMALY":194.63,"EPHEMERIS_TYPE":0,"CLASSIFICATION_TYPE":"U","NORAD_CAT_ID":45807,"ELEMENT_SET_NO":999,"REV_AT_EPOCH":2102,"BSTAR":0,"MEAN_MOTION_DOT":-3.63e-6,"MEAN_MOTION_DDOT":0},{"OBJECT_NAME":"GALAXY 30 (WAAS/PRN 135)","OBJECT_ID":"2020-056C","EPOCH":"2026-03-04T11:51:38.736576","MEAN_MOTION":1.00272712,"ECCENTRICITY":0.0002216,"INCLINATION":0.0238,"RA_OF_ASC_NODE":163.2602,"ARG_OF_PERICENTER":186.8316,"MEAN_ANOMALY":225.0757,"EPHEMERIS_TYPE":0,"CLASSIFICATION_TYPE":"U","NORAD_CAT_ID":46114,"ELEMENT_SET_NO":999,"REV_AT_EPOCH":2024,"BSTAR":0,"MEAN_MOTION_DOT":0,"MEAN_MOTION_DDOT":0},{"OBJECT_NAME":"QZS-1R (QZSS/PRN 196)","OBJECT_ID":"2021-096A","EPOCH":"2026-03-03T16:55:38.753760","MEAN_MOTION":1.00291339,"ECCENTRICITY":0.0747356,"INCLINATION":37.2425,"RA_OF_ASC_NODE":81.1405,"ARG_OF_PERICENTER":269.6972,"MEAN_ANOMALY":198.6025,"EPHEMERIS_TYPE":0,"CLASSIFICATION_TYPE":"U","NORAD_CAT_ID":49336,"ELEMENT_SET_NO":999,"REV_AT_EPOCH":1595,"BSTAR":0,"MEAN_MOTION_DOT":-2.6e-6,"MEAN_MOTION_DDOT":0},{"OBJECT_NAME":"QZS-6 (QZSS/PRN 200)","OBJECT_ID":"2025-023A","EPOCH":"2026-03-04T17:15:38.791008","MEAN_MOTION":1.00270084,"ECCENTRICITY":0.0001869,"INCLINATION":0.0435,"RA_OF_ASC_NODE":310.3847,"ARG_OF_PERICENTER":28.3826,"MEAN_ANOMALY":173.1004,"EPHEMERIS_TYPE":0,"CLASSIFICATION_TYPE":"U","NORAD_CAT_ID":62876,"ELEMENT_SET_NO":999,"REV_AT_EPOCH":391,"BSTAR":0,"MEAN_MOTION_DOT":-2.43e-6,"MEAN_MOTION_DDOT":0}]
