BEIDOU-3 G3             
1 45807U 20040A   26063.84770657 -.00000363  00000+0  00000+0 0  9992
2 45807   2.1912  67.1232 0004351 316.4937 194.6300  1.00275295 21027
GALAXY 30 (G-30)        
1 46114U 20056C   26063.49419834  .00000000  00000+0  00000+0 0  9996
2 46114   0.0238 163.2602 0002216 186.8316 225.0757  1.00272712 20243
QZS-1R (MICHIBIKI-1R)   
1 49336U 21096A   26062.70530965 -.00000260  00000+0  00000+0 0  9991
2 49336  37.2425  81.1405 0747356 269.6972 198.6025  1.00291339 15951
QZS-6 (MICHIBIKI-6)     
1 62876U 25023A   26063.71919897 -.00000243  00000+0  00000+0 0  9997
2 62876   0.0435 310.3847 0001869  28.3826 173.1004  1.00270084  3913
